YAM-10                  
1 64580U 25135BE  26200.20551843  .00000946  00000+0  99104-4 0  9992
2 64580  97.7755 313.6185 0001987 225.1518 134.9540 14.91908561 58633
YAM-11                  
1 68991U 26100M   26200.20940596  .00000689  00000+0  75992-4 0  9995
2 68991  97.7640  96.9101 0008231 345.3451  14.7527 14.90607977 11461
YAM-16                  
1 68992U 26100N   26200.21974747  .00000608  00000+0  66167-4 0  9997
2 68992  97.7330  97.0434 0004568  53.2108 306.9529 14.91521636 11479
YAM-13                  
1 68993U 26100P   26199.96384741  .00000571  00000+0  64273-4 0  9991
2 68993  97.7729  96.7697 0009288 346.5004  13.5964 14.90418251 11433
YAM-15                  
1 68997U 26100T   26200.15112842  .00000572  00000+0  63996-4 0  9992
2 68997  97.7629  96.9800 0009368 359.3601   0.7603 14.90653984 11463
YAM-12                  
1 69003U 26100Z   26199.52160391  .00002242  00000+0  23545-3 0  9992
2 69003  97.7632  96.2484 0009545 340.3637  19.7212 14.90456374 11351
YAM-14                  
1 69008U 26100AE  26199.71617867  .00000677  00000+0  75207-4 0  9996
2 69008  97.7642  96.4608 0005884  27.1062 333.0462 14.90353222 11381
