{"fetched_at":"2026-07-19T17:32:05.891Z","source":"https://celestrak.org/NORAD/elements/gp.php?NAME=YAM&FORMAT=JSON","constellation":"earthdaily-constellation","records":[{"OBJECT_NAME":"YAM-10","OBJECT_ID":"2025-135BE","EPOCH":"2026-07-19T04:55:56.792352","CLASSIFICATION_TYPE":"U","MEAN_MOTION":14.91908561,"ECCENTRICITY":0.00019871,"INCLINATION":97.7755,"RA_OF_ASC_NODE":313.6185,"ARG_OF_PERICENTER":225.1518,"MEAN_ANOMALY":134.954,"EPHEMERIS_TYPE":0,"NORAD_CAT_ID":64580,"ELEMENT_SET_NO":999,"REV_AT_EPOCH":5863,"BSTAR":0.000099104297,"MEAN_MOTION_DOT":0.00000946,"MEAN_MOTION_DDOT":0},{"OBJECT_NAME":"YAM-11","OBJECT_ID":"2026-100M","EPOCH":"2026-07-19T05:01:32.674944","CLASSIFICATION_TYPE":"U","MEAN_MOTION":14.90607977,"ECCENTRICITY":0.00082318,"INCLINATION":97.764,"RA_OF_ASC_NODE":96.9101,"ARG_OF_PERICENTER":345.3451,"MEAN_ANOMALY":14.7527,"EPHEMERIS_TYPE":0,"NORAD_CAT_ID":68991,"ELEMENT_SET_NO":999,"REV_AT_EPOCH":1146,"BSTAR":0.000075991667,"MEAN_MOTION_DOT":0.00000689,"MEAN_MOTION_DDOT":0},{"OBJECT_NAME":"YAM-16","OBJECT_ID":"2026-100N","EPOCH":"2026-07-19T05:16:26.181408","CLASSIFICATION_TYPE":"U","MEAN_MOTION":14.91521636,"ECCENTRICITY":0.00045685,"INCLINATION":97.733,"RA_OF_ASC_NODE":97.0434,"ARG_OF_PERICENTER":53.2108,"MEAN_ANOMALY":306.9529,"EPHEMERIS_TYPE":0,"NORAD_CAT_ID":68992,"ELEMENT_SET_NO":999,"REV_AT_EPOCH":1147,"BSTAR":0.000066167389,"MEAN_MOTION_DOT":0.00000608,"MEAN_MOTION_DDOT":0},{"OBJECT_NAME":"YAM-13","OBJECT_ID":"2026-100P","EPOCH":"2026-07-18T23:07:56.416224","CLASSIFICATION_TYPE":"U","MEAN_MOTION":14.90418251,"ECCENTRICITY":0.00092889,"INCLINATION":97.7729,"RA_OF_ASC_NODE":96.7697,"ARG_OF_PERICENTER":346.5004,"MEAN_ANOMALY":13.5964,"EPHEMERIS_TYPE":0,"NORAD_CAT_ID":68993,"ELEMENT_SET_NO":999,"REV_AT_EPOCH":1143,"BSTAR":0.00006427344,"MEAN_MOTION_DOT":0.00000571,"MEAN_MOTION_DDOT":0},{"OBJECT_NAME":"YAM-15","OBJECT_ID":"2026-100T","EPOCH":"2026-07-19T03:37:37.495488","CLASSIFICATION_TYPE":"U","MEAN_MOTION":14.90653984,"ECCENTRICITY":0.00093681,"INCLINATION":97.7629,"RA_OF_ASC_NODE":96.98,"ARG_OF_PERICENTER":359.3601,"MEAN_ANOMALY":0.7603,"EPHEMERIS_TYPE":0,"NORAD_CAT_ID":68997,"ELEMENT_SET_NO":999,"REV_AT_EPOCH":1146,"BSTAR":0.000063996394,"MEAN_MOTION_DOT":0.00000572,"MEAN_MOTION_DDOT":0},{"OBJECT_NAME":"YAM-12","OBJECT_ID":"2026-100Z","EPOCH":"2026-07-18T12:31:06.577824","CLASSIFICATION_TYPE":"U","MEAN_MOTION":14.90456374,"ECCENTRICITY":0.00095458,"INCLINATION":97.7632,"RA_OF_ASC_NODE":96.2484,"ARG_OF_PERICENTER":340.3637,"MEAN_ANOMALY":19.7212,"EPHEMERIS_TYPE":0,"NORAD_CAT_ID":69003,"ELEMENT_SET_NO":999,"REV_AT_EPOCH":1135,"BSTAR":0.00023544616,"MEAN_MOTION_DOT":0.00002242,"MEAN_MOTION_DDOT":0},{"OBJECT_NAME":"YAM-14","OBJECT_ID":"2026-100AE","EPOCH":"2026-07-18T17:11:17.837088","CLASSIFICATION_TYPE":"U","MEAN_MOTION":14.90353222,"ECCENTRICITY":0.00058848,"INCLINATION":97.7642,"RA_OF_ASC_NODE":96.4608,"ARG_OF_PERICENTER":27.1062,"MEAN_ANOMALY":333.0462,"EPHEMERIS_TYPE":0,"NORAD_CAT_ID":69008,"ELEMENT_SET_NO":999,"REV_AT_EPOCH":1138,"BSTAR":0.000075206872,"MEAN_MOTION_DOT":0.00000677,"MEAN_MOTION_DDOT":0}]}
